ORBCOMM-X               
1 21576U 91050C   25355.13636049  .00000236  00000+0  82656-4 0  9999
2 21576  98.3217  57.7212 0003327   1.1037 359.0160 14.43441710809082
ORBCOMM FM01            
1 23545U 95017A   25355.19415765  .00005120  00000+0  49735-3 0  9997
2 23545  69.9628 326.8518 0004238 332.1868  27.9061 14.93193142640396
ORBCOMM FM02            
1 23546U 95017B   25355.19307804  .00006626  00000+0  61571-3 0  9996
2 23546  69.9640 345.4314 0005465 345.5541  14.5459 14.94791620640064
ORBCOMM FM08            
1 25112U 97084A   25354.90791808  .00000876  00000+0  28046-3 0  9993
2 25112  45.0120 191.0257 0006797 115.5219 244.6336 14.46616152468409
ORBCOMM FM10            
1 25113U 97084B   25354.84922596  .00000700  00000+0  23335-3 0  9999
2 25113  45.0135 194.0352 0005189  82.3873 277.7568 14.46360375643532
ORBCOMM FM11            
1 25114U 97084C   25354.88672318  .00000856  00000+0  27765-3 0  9991
2 25114  45.0119 194.8340 0006016  83.6543 276.4993 14.46105070468495
ORBCOMM FM12            
1 25115U 97084D   25354.84654167  .00000787  00000+0  25858-3 0  9994
2 25115  45.0125 194.7578 0005103  81.1256 279.0173 14.46127564468283
ORBCOMM FM09            
1 25116U 97084E   25354.62022676  .00000731  00000+0  24380-3 0  9993
2 25116  45.0129 196.9818 0006231  68.1753 291.9760 14.45965181468457
